KUZGTU 1 (RS47S)        
1 57217U 23091AV  26201.84153492  .00007993  00000+0  27296-3 0  9990
2 57217  97.5041 266.6779 0009495 345.1585  14.9375 15.30545959169529
SONATE-2                
1 59112U 24043Q   26201.17360806  .00026687  00000+0  31735-3 0  9993
2 59112  97.5564 353.6627 0006604  90.5198 269.6816 15.61100593133035
MESAT1                  
1 60209U 24125G   26201.09773864  .00046122  00000+0  43469-3 0  9999
2 60209  97.2242  59.4134 0010702  97.3203 262.9274 15.66877080114719
OOV-CUBE (TUBSAT-30)    
1 60240U 24128F   26201.45672186  .00001048  00000+0  92250-4 0  9993
2 60240  61.9942 109.5533 0040424 141.1866 219.2141 15.02886563111111
COLIBRI-S (RS67S)       
1 61746U 24199M   26201.60229527  .00014633  00000+0  27157-3 0  9994
2 61746  97.2939  75.7843 0009523 144.3522 215.8367 15.48997293142588
HORS 3 (RS81S)          
1 61753U 24199U   26201.59211280  .00026195  00000+0  36105-3 0  9996
2 61753  97.2920  78.1458 0007704 139.8017 220.3809 15.57170364142755
HORS 4 (RS82S)          
1 61754U 24199V   26201.57065486  .00039908  00000+0  44351-3 0  9998
2 61754  97.2860  79.5622 0007436 133.3648 226.8231 15.62769817142852
SIT-2086                
1 61764U 24199AF  26201.54661161  .00026683  00000+0  39412-3 0  9996
2 61764  97.2881  78.4596 0008568 129.0524 231.1494 15.55280644139614
HYPERVIEW 1G (RS66S)    
1 61772U 24199AP  26201.54017557  .00211031  00000+0  79305-3 0  9997
2 61772  97.2788  83.2046 0008195 139.1634 221.0253 15.87248462139947
ALTAIR (RS65S)          
1 61779U 24199AW  26201.56860473  .00006308  00000+0  17289-3 0  9991
2 61779  97.2985  70.7051 0012644 176.9906 183.1417 15.37574575142244
ASRTU-1 (AO-123)        
1 61781U 24199AY  26201.58722158  .00004546  00000+0  13122-3 0  9997
2 61781  97.2956  69.9594 0013594 180.8866 179.2357 15.36100176139056
SAMSAT-IONOSPHERE (RS7*)
1 61784U 24199BB  26201.56226325  .00035646  00000+0  43265-3 0  9999
2 61784  97.2884  78.2980 0009765 143.5388 216.6536 15.60473375142769
RTU MIREA 1 (RS51S)     
1 61785U 24199BC  26201.56823891  .00046527  00000+0  47763-3 0  9998
2 61785  97.2869  79.3273 0009782 139.1048 221.0947 15.64741830139684
TEVEL2-4                
1 63213U 25052D   26201.22894966  .00010410  00000+0  30230-3 0  9992
2 63213  97.3852  97.6941 0003105  41.7416 318.4064 15.35674787 75189
TEVEL2-5                
1 63214U 25052E   26200.60165345  .00010499  00000+0  30684-3 0  9996
2 63214  97.3852  97.0033 0003191  45.3967 314.7537 15.35471509 75082
TEVEL2-6                
1 63215U 25052F   26201.46193819  .00011580  00000+0  33832-3 0  9999
2 63215  97.3857  97.8506 0003173  45.7314 314.4190 15.35454979 75210
TEVEL2-1                
1 63217U 25052H   26201.50298469  .00010916  00000+0  32491-3 0  9995
2 63217  97.3828  97.4752 0003777  48.6213 311.5355 15.34882751 75201
TEVEL2-3                
1 63218U 25052J   26201.23556228  .00009843  00000+0  29271-3 0  9995
2 63218  97.3836  97.2337 0003659  50.1698 309.9867 15.34939531 75165
TEVEL2-2                
1 63219U 25052K   26201.43788071  .00010279  00000+0  30603-3 0  9997
2 63219  97.3828  97.4131 0003898  48.9393 311.2187 15.34891406 75195
OTP-2                   
1 63235U 25052AB  26201.44618076  .00004108  00000+0  17053-3 0  9991
2 63235  97.3822  93.3820 0007889  56.5429 303.6562 15.24376770 74930
TEVEL2-9                
1 63237U 25052AD  26201.26333412  .00009848  00000+0  31278-3 0  9992
2 63237  97.3892  96.5399 0007209  42.4598 317.7200 15.32827728 75098
TEVEL2-7                
1 63238U 25052AE  26201.24556908  .00009039  00000+0  29020-3 0  9992
2 63238  97.3894  96.4235 0007321  42.8793 317.3019 15.32507264 75088
TEVEL2-8                
1 63239U 25052AF  26201.25413935  .00009166  00000+0  29438-3 0  9990
2 63239  97.3895  96.4084 0007392  43.6806 316.5020 15.32492928 75087
INNOSAT 16 (RS92S7)     
1 64878U 25155C   26201.58357422  .00003759  00000+0  14981-3 0  9997
2 64878  97.4588 168.6171 0012346  72.3777 287.8809 15.25773508 85766
GEOSCAN 6 (RS92S6)      
1 64879U 25155D   26201.59183766  .00006596  00000+0  22450-3 0  9999
2 64879  97.4579 170.2915 0009735  66.9988 293.2278 15.30718498 85879
GEOSCAN 1 (RS92S1)      
1 64880U 25155E   26201.58060025  .00007095  00000+0  23645-3 0  9994
2 64880  97.4575 170.4586 0009654  67.2233 293.0027 15.31371104 85881
239ALFEROV (RS61S)      
1 64881U 25155F   26201.56551447  .00009362  00000+0  28877-3 0  9997
2 64881  97.4574 171.1220 0009382  67.2258 292.9975 15.33763568 85925
GEOSCAN 2 (RS92S2)      
1 64890U 25155Q   26201.56856820  .00006896  00000+0  22816-3 0  9996
2 64890  97.4574 170.6119 0008706  57.4658 302.7424 15.31628360 85893
GEOSCAN 5 (RS92S5)      
1 64891U 25155R   26201.61299766  .00009438  00000+0  28838-3 0  9998
2 64891  97.4567 171.3200 0008445  72.2061 288.0103 15.34067464 85949
GEOSCAN 4 (RS92S4)      
1 64892U 25155S   26201.59366379  .00009664  00000+0  29367-3 0  9990
2 64892  97.4571 171.3591 0008332  72.7092 287.5062 15.34238083 85947
