OBJECT_NAME,OBJECT_ID,EPOCH,MEAN_MOTION,ECCENTRICITY,INCLINATION,RA_OF_ASC_NODE,ARG_OF_PERICENTER,MEAN_ANOMALY,EPHEMERIS_TYPE,CLASSIFICATION_TYPE,NORAD_CAT_ID,ELEMENT_SET_NO,REV_AT_EPOCH,BSTAR,MEAN_MOTION_DOT,MEAN_MOTION_DDOT
KUZGTU 1 (RS47S),2023-091AV,2026-07-20T20:11:48.617088,15.30545959,.0009495,97.5041,266.6779,345.1585,14.9375,0,U,57217,999,16952,.27296E-3,.7993E-4,0
SONATE-2,2024-043Q,2026-07-20T04:09:59.736384,15.61100593,.00066043,97.5564,353.6627,90.5198,269.6816,0,U,59112,999,13303,.31734658E-3,.26687E-3,0
MESAT1,2024-125G,2026-07-20T02:20:44.618496,15.66877080,.00107027,97.2242,59.4134,97.3203,262.9274,0,U,60209,999,11471,.43468966E-3,.46122E-3,0
OOV-CUBE (TUBSAT-30),2024-128F,2026-07-20T10:57:40.768704,15.02886563,.00404248,61.9942,109.5533,141.1866,219.2141,0,U,60240,999,11111,.92250486E-4,.1048E-4,0
COLIBRI-S (RS67S),2024-199M,2026-07-20T14:27:18.311328,15.48997293,.00095237,97.2939,75.7843,144.3522,215.8367,0,U,61746,999,14258,.27156886E-3,.14633E-3,0
HORS 3 (RS81S),2024-199U,2026-07-20T14:12:38.545920,15.57170364,.00077045,97.2920,78.1458,139.8017,220.3809,0,U,61753,999,14275,.36105352E-3,.26195E-3,0
HORS 4 (RS82S),2024-199V,2026-07-20T13:41:44.579904,15.62769817,.00074366,97.2860,79.5622,133.3648,226.8231,0,U,61754,999,14285,.44351215E-3,.39908E-3,0
SIT-2086,2024-199AF,2026-07-20T13:07:07.243104,15.55280644,.00085684,97.2881,78.4596,129.0524,231.1494,0,U,61764,999,13961,.39411598E-3,.26683E-3,0
HYPERVIEW 1G (RS66S),2024-199AP,2026-07-20T12:57:51.169248,15.87248462,.00081954,97.2788,83.2046,139.1634,221.0253,0,U,61772,999,13994,.79304854E-3,.211031E-2,0
ALTAIR (RS65S),2024-199AW,2026-07-20T13:38:47.448672,15.37574575,.00126446,97.2985,70.7051,176.9906,183.1417,0,U,61779,999,14224,.17288689E-3,.6308E-4,0
ASRTU-1 (AO-123),2024-199AY,2026-07-20T14:05:35.944512,15.36100176,.0013594,97.2956,69.9594,180.8866,179.2357,0,U,61781,999,13905,.13121678E-3,.4546E-4,0
SAMSAT-IONOSPHERE (RS75S),2024-199BB,2026-07-20T13:29:39.544800,15.60473375,.00097659,97.2884,78.2980,143.5388,216.6536,0,U,61784,999,14276,.43264858E-3,.35646E-3,0
RTU MIREA 1 (RS51S),2024-199BC,2026-07-20T13:38:15.841824,15.64741830,.00097824,97.2869,79.3273,139.1048,221.0947,0,U,61785,999,13968,.47762761E-3,.46527E-3,0
TEVEL2-4,2025-052D,2026-07-20T05:29:41.250624,15.35674787,.00031053,97.3852,97.6941,41.7416,318.4064,0,U,63213,999,7518,.30229523E-3,.1041E-3,0
TEVEL2-5,2025-052E,2026-07-19T14:26:22.858080,15.35471509,.0003191,97.3852,97.0033,45.3967,314.7537,0,U,63214,999,7508,.30684E-3,.10499E-3,0
TEVEL2-6,2025-052F,2026-07-20T11:05:11.459616,15.35454979,.00031731,97.3857,97.8506,45.7314,314.4190,0,U,63215,999,7521,.33831714E-3,.1158E-3,0
TEVEL2-1,2025-052H,2026-07-20T12:04:17.877216,15.34882751,.00037775,97.3828,97.4752,48.6213,311.5355,0,U,63217,999,7520,.32490716E-3,.10916E-3,0
TEVEL2-3,2025-052J,2026-07-20T05:39:12.580992,15.34939531,.0003659,97.3836,97.2337,50.1698,309.9867,0,U,63218,999,7516,.29270829E-3,.9843E-4,0
TEVEL2-2,2025-052K,2026-07-20T10:30:32.893344,15.34891406,.00038983,97.3828,97.4131,48.9393,311.2187,0,U,63219,999,7519,.30602516E-3,.10279E-3,0
OTP-2,2025-052AB,2026-07-20T10:42:30.017664,15.24376770,.00078891,97.3822,93.3820,56.5429,303.6562,0,U,63235,999,7493,.17052896E-3,.4108E-4,0
TEVEL2-9,2025-052AD,2026-07-20T06:19:12.067968,15.32827728,.00072091,97.3892,96.5399,42.4598,317.7200,0,U,63237,999,7509,.31277913E-3,.9848E-4,0
TEVEL2-7,2025-052AE,2026-07-20T05:53:37.168512,15.32507264,.00073211,97.3894,96.4235,42.8793,317.3019,0,U,63238,999,7508,.29019794E-3,.9039E-4,0
TEVEL2-8,2025-052AF,2026-07-20T06:05:57.639840,15.32492928,.0007392,97.3895,96.4084,43.6806,316.5020,0,U,63239,999,7508,.29437544E-3,.9166E-4,0
INNOSAT 16 (RS92S7),2025-155C,2026-07-20T14:00:20.812608,15.25773508,.00123466,97.4588,168.6171,72.3777,287.8809,0,U,64878,999,8576,.1498062E-3,.3759E-4,0
GEOSCAN 6 (RS92S6),2025-155D,2026-07-20T14:12:14.773824,15.30718498,.00097355,97.4579,170.2915,66.9988,293.2278,0,U,64879,999,8587,.22449752E-3,.6596E-4,0
GEOSCAN 1 (RS92S1),2025-155E,2026-07-20T13:56:03.861600,15.31371104,.00096546,97.4575,170.4586,67.2233,293.0027,0,U,64880,999,8588,.23644835E-3,.7095E-4,0
239ALFEROV (RS61S),2025-155F,2026-07-20T13:34:20.450208,15.33763568,.00093824,97.4574,171.1220,67.2258,292.9975,0,U,64881,999,8592,.28876665E-3,.9362E-4,0
GEOSCAN 2 (RS92S2),2025-155Q,2026-07-20T13:38:44.292480,15.31628360,.00087063,97.4574,170.6119,57.4658,302.7424,0,U,64890,999,8589,.22816078E-3,.6896E-4,0
GEOSCAN 5 (RS92S5),2025-155R,2026-07-20T14:42:42.997824,15.34067464,.00084451,97.4567,171.3200,72.2061,288.0103,0,U,64891,999,8594,.28838197E-3,.9438E-4,0
GEOSCAN 4 (RS92S4),2025-155S,2026-07-20T14:14:52.551456,15.34238083,.0008332,97.4571,171.3591,72.7092,287.5062,0,U,64892,999,8594,.29366607E-3,.9664E-4,0
